{
  "type": "Feature",
  "properties": {
    "name": "Madhya Pradesh (Well Coverage Area)"
  },
  "geometry": {
    "type": "Polygon",
    "coordinates": [
      [
        [
          75.659444,
          22.357222
        ],
        [
          75.557222,
          22.403333
        ],
        [
          75.325556,
          22.541111
        ],
        [
          75.043056,
          23.163333
        ],
        [
          75.064444,
          23.285278
        ],
        [
          75.765,
          24.233611
        ],
        [
          78.079722,
          26.293611
        ],
        [
          78.159444,
          26.312222
        ],
        [
          78.289722,
          26.29
        ],
        [
          78.368611,
          26.264167
        ],
        [
          80.208333,
          25.3875
        ],
        [
          80.523889,
          24.858889
        ],
        [
          80.577778,
          23.730556
        ],
        [
          80.518056,
          23.09
        ],
        [
          79.830278,
          22.8775
        ],
        [
          75.742222,
          22.365833
        ],
        [
          75.659444,
          22.357222
        ]
      ]
    ]
  }
}
